[{"OBJECT_NAME":"YAOGAN-39 02B","OBJECT_ID":"2023-145D","EPOCH":"2026-03-09T14:23:58.847424","MEAN_MOTION":15.16715423,"ECCENTRICITY":0.0004349,"INCLINATION":34.9899,"RA_OF_ASC_NODE":125.1097,"ARG_OF_PERICENTER":240.3858,"MEAN_ANOMALY":119.6421,"EPHEMERIS_TYPE":0,"CLASSIFICATION_TYPE":"U","NORAD_CAT_ID":57889,"ELEMENT_SET_NO":999,"REV_AT_EPOCH":13775,"BSTAR":0.00040419,"MEAN_MOTION_DOT":8.082e-5,"MEAN_MOTION_DDOT":0},{"OBJECT_NAME":"PREFIRE-2","OBJECT_ID":"2024-099A","EPOCH":"2026-03-09T13:43:59.023488","MEAN_MOTION":15.2026253,"ECCENTRICITY":0.0011923,"INCLINATION":97.4208,"RA_OF_ASC_NODE":286.39,"ARG_OF_PERICENTER":187.6312,"MEAN_ANOMALY":172.4744,"EPHEMERIS_TYPE":0,"CLASSIFICATION_TYPE":"U","NORAD_CAT_ID":59881,"ELEMENT_SET_NO":999,"REV_AT_EPOCH":9899,"BSTAR":0.00023093563,"MEAN_MOTION_DOT":4.952e-5,"MEAN_MOTION_DDOT":0}]
